start=new Date('2021-10-30T00:00:00.000Z').valueOf();
sats=[{"REF_FRAME":"TEME","CENTER_NAME":"EARTH","NORAD_CAT_ID":"46329","RCS_SIZE":"LARGE","BSTAR":"0.00007932800000","PERIOD":"95.592","DECAY_DATE":null,"SEMIMAJOR_AXIS":"6925.318","ELEMENT_SET_NO":"999","REV_AT_EPOCH":"6459","CLASSIFICATION_TYPE":"U","EPOCH":"2021-10-29T10:13:39.906912","RA_OF_ASC_NODE":"304.5630","EPHEMERIS_TYPE":"0","SITE":"AFETR","TLE_LINE2":"2 46329  53.0547 304.5630 0001466  70.2933 289.8214 15.06409919 64594","ARG_OF_PERICENTER":"70.2933","MEAN_MOTION_DOT":"0.00000901","TLE_LINE1":"1 46329U 20062E   21302.42615633  .00000901  00000-0  79328-4 0  9995","COUNTRY_CODE":"US","MEAN_ANOMALY":"289.8214","LAUNCH_DATE":"2020-09-03","OBJECT_ID":"2020-062E","MEAN_MOTION":"15.06409919","PERIAPSIS":"546.168","GP_ID":"188435184","OBJECT_TYPE":"PAYLOAD","OBJECT_NAME":"STARLINK-1695","ECCENTRICITY":"0.00014660","INCLINATION":"53.0547","APOAPSIS":"548.198","MEAN_MOTION_DDOT":"0.0000000000000","TIME_SYSTEM":"UTC","MEAN_ELEMENT_THEORY":"SGP4","FILE":"3191412"},{"TLE_LINE2":"2 46330  53.0535 303.7257 0001361  74.3078 285.8061 15.06400082 64631","SITE":"AFETR","EPHEMERIS_TYPE":"0","COUNTRY_CODE":"US","TLE_LINE1":"1 46330U 20062F   21302.61415048  .00002320  00000-0  17459-3 0  9999","ARG_OF_PERICENTER":"74.3078","MEAN_MOTION_DOT":"0.00002320","SEMIMAJOR_AXIS":"6925.348","REV_AT_EPOCH":"6463","ELEMENT_SET_NO":"999","EPOCH":"2021-10-29T14:44:22.601472","CLASSIFICATION_TYPE":"U","RA_OF_ASC_NODE":"303.7257","BSTAR":"0.00017459000000","DECAY_DATE":null,"PERIOD":"95.592","REF_FRAME":"TEME","RCS_SIZE":"LARGE","CENTER_NAME":"EARTH","NORAD_CAT_ID":"46330","TIME_SYSTEM":"UTC","MEAN_MOTION_DDOT":"0.0000000000000","MEAN_ELEMENT_THEORY":"SGP4","FILE":"3191844","ECCENTRICITY":"0.00013610","OBJECT_NAME":"STARLINK-1710","APOAPSIS":"548.156","INCLINATION":"53.0535","MEAN_ANOMALY":"285.8061","LAUNCH_DATE":"2020-09-03","OBJECT_ID":"2020-062F","PERIAPSIS":"546.271","GP_ID":"188468685","OBJECT_TYPE":"PAYLOAD","MEAN_MOTION":"15.06400082"},{"TIME_SYSTEM":"UTC","MEAN_MOTION_DDOT":"0.0000000000000","FILE":"3191412","MEAN_ELEMENT_THEORY":"SGP4","OBJECT_NAME":"STARLINK-1719","ECCENTRICITY":"0.00013310","APOAPSIS":"548.121","INCLINATION":"53.0553","LAUNCH_DATE":"2020-09-03","OBJECT_ID":"2020-062G","MEAN_ANOMALY":"285.8694","PERIAPSIS":"546.278","GP_ID":"188435685","OBJECT_TYPE":"PAYLOAD","MEAN_MOTION":"15.06404561","TLE_LINE2":"2 46331  53.0553 324.4692 0001331  74.2442 285.8694 15.06404561 64320","EPHEMERIS_TYPE":"0","SITE":"AFETR","TLE_LINE1":"1 46331U 20062G   21302.45011867  .00001248  00000-0  10263-3 0  9997","COUNTRY_CODE":"US","ARG_OF_PERICENTER":"74.2442","MEAN_MOTION_DOT":"0.00001248","ELEMENT_SET_NO":"999","SEMIMAJOR_AXIS":"6925.335","REV_AT_EPOCH":"6432","CLASSIFICATION_TYPE":"U","EPOCH":"2021-10-29T10:48:10.253088","RA_OF_ASC_NODE":"324.4692","BSTAR":"0.00010263000000","DECAY_DATE":null,"PERIOD":"95.592","REF_FRAME":"TEME","RCS_SIZE":"LARGE","CENTER_NAME":"EARTH","NORAD_CAT_ID":"46331"},{"MEAN_MOTION_DDOT":"0.0000000000000","TIME_SYSTEM":"UTC","MEAN_ELEMENT_THEORY":"SGP4","FILE":"3191412","OBJECT_NAME":"STARLINK-1721","ECCENTRICITY":"0.00013380","INCLINATION":"53.0538","APOAPSIS":"548.138","MEAN_ANOMALY":"281.5943","LAUNCH_DATE":"2020-09-03","OBJECT_ID":"2020-062H","MEAN_MOTION":"15.06400669","PERIAPSIS":"546.285","GP_ID":"188435936","OBJECT_TYPE":"PAYLOAD","EPHEMERIS_TYPE":"0","SITE":"AFETR","TLE_LINE2":"2 46332  53.0538 324.1124 0001338  78.5197 281.5943 15.06400669 64338","ARG_OF_PERICENTER":"78.5197","MEAN_MOTION_DOT":"0.00001266","TLE_LINE1":"1 46332U 20062H   21302.52752354  .00001266  00000-0  10385-3 0  9994","COUNTRY_CODE":"US","REV_AT_EPOCH":"6433","SEMIMAJOR_AXIS":"6925.347","ELEMENT_SET_NO":"999","CLASSIFICATION_TYPE":"U","EPOCH":"2021-10-29T12:39:38.033856","RA_OF_ASC_NODE":"324.1124","BSTAR":"0.00010385000000","PERIOD":"95.592","DECAY_DATE":null,"REF_FRAME":"TEME","CENTER_NAME":"EARTH","NORAD_CAT_ID":"46332","RCS_SIZE":"LARGE"},{"LAUNCH_DATE":"2020-09-03","MEAN_ANOMALY":"291.2881","OBJECT_ID":"2020-062J","OBJECT_TYPE":"PAYLOAD","PERIAPSIS":"546.103","GP_ID":"188434684","MEAN_MOTION":"15.06397294","ECCENTRICITY":"0.00016150","OBJECT_NAME":"STARLINK-1723","APOAPSIS":"548.340","INCLINATION":"53.0551","TIME_SYSTEM":"UTC","MEAN_MOTION_DDOT":"0.0000000000000","MEAN_ELEMENT_THEORY":"SGP4","FILE":"3191412","REF_FRAME":"TEME","RCS_SIZE":"LARGE","NORAD_CAT_ID":"46333","CENTER_NAME":"EARTH","BSTAR":"0.00005764400000","DECAY_DATE":null,"PERIOD":"95.592","CLASSIFICATION_TYPE":"U","EPOCH":"2021-10-29T13:00:52.470144","SEMIMAJOR_AXIS":"6925.357","ELEMENT_SET_NO":"999","REV_AT_EPOCH":"6433","RA_OF_ASC_NODE":"324.0551","TLE_LINE2":"2 46333  53.0551 324.0551 0001615  68.8281 291.2881 15.06397294 64339","EPHEMERIS_TYPE":"0","SITE":"AFETR","COUNTRY_CODE":"US","TLE_LINE1":"1 46333U 20062J   21302.54227396  .00000577  00000-0  57644-4 0  9994","MEAN_MOTION_DOT":"0.00000577","ARG_OF_PERICENTER":"68.8281"},{"INCLINATION":"53.0545","APOAPSIS":"548.047","OBJECT_NAME":"STARLINK-1725","ECCENTRICITY":"0.00012270","FILE":"3191412","MEAN_ELEMENT_THEORY":"SGP4","MEAN_MOTION_DDOT":"0.0000000000000","TIME_SYSTEM":"UTC","MEAN_MOTION":"15.06405400","PERIAPSIS":"546.347","GP_ID":"188434934","OBJECT_TYPE":"PAYLOAD","OBJECT_ID":"2020-062K","LAUNCH_DATE":"2020-09-03","MEAN_ANOMALY":"276.0126","RA_OF_ASC_NODE":"304.1536","ELEMENT_SET_NO":"999","SEMIMAJOR_AXIS":"6925.332","REV_AT_EPOCH":"6461","CLASSIFICATION_TYPE":"U","EPOCH":"2021-10-29T12:25:00.671232","MEAN_MOTION_DOT":"0.00000905","ARG_OF_PERICENTER":"84.1003","COUNTRY_CODE":"US","TLE_LINE1":"1 46334U 20062K   21302.51736888  .00000905  00000-0  79598-4 0  9990","EPHEMERIS_TYPE":"0","SITE":"AFETR","TLE_LINE2":"2 46334  53.0545 304.1536 0001227  84.1003 276.0126 15.06405400 64610","CENTER_NAME":"EARTH","NORAD_CAT_ID":"46334","RCS_SIZE":"LARGE","REF_FRAME":"TEME","PERIOD":"95.592","DECAY_DATE":null,"BSTAR":"0.00007959800000"},{"BSTAR":"0.00020197000000","PERIOD":"95.591","DECAY_DATE":null,"REF_FRAME":"TEME","NORAD_CAT_ID":"46335","CENTER_NAME":"EARTH","RCS_SIZE":"LARGE","EPHEMERIS_TYPE":"0","SITE":"AFETR","TLE_LINE2":"2 46335  53.0534 323.9119 0001532  67.6126 292.5025 15.06411788 64523","MEAN_MOTION_DOT":"0.00002729","ARG_OF_PERICENTER":"67.6126","COUNTRY_CODE":"US","TLE_LINE1":"1 46335U 20062L   21302.57175483  .00002729  00000-0  20197-3 0  9991","EPOCH":"2021-10-29T13:43:19.617312","CLASSIFICATION_TYPE":"U","SEMIMAJOR_AXIS":"6925.312","REV_AT_EPOCH":"6452","ELEMENT_SET_NO":"999","RA_OF_ASC_NODE":"323.9119","OBJECT_ID":"2020-062L","LAUNCH_DATE":"2020-09-03","MEAN_ANOMALY":"292.5025","MEAN_MOTION":"15.06411788","OBJECT_TYPE":"PAYLOAD","PERIAPSIS":"546.116","GP_ID":"188439458","MEAN_MOTION_DDOT":"0.0000000000000","TIME_SYSTEM":"UTC","FILE":"3191513","MEAN_ELEMENT_THEORY":"SGP4","OBJECT_NAME":"STARLINK-1727","ECCENTRICITY":"0.00015320","INCLINATION":"53.0534","APOAPSIS":"548.238"},{"TLE_LINE2":"2 46336  53.0551 303.3670 0001597  70.9783 289.1378 15.06406405 64639","SITE":"AFETR","EPHEMERIS_TYPE":"0","COUNTRY_CODE":"US","TLE_LINE1":"1 46336U 20062M   21302.69523484  .00000897  00000-0  79120-4 0  9998","ARG_OF_PERICENTER":"70.9783","MEAN_MOTION_DOT":"0.00000897","EPOCH":"2021-10-29T16:41:08.290176","CLASSIFICATION_TYPE":"U","ELEMENT_SET_NO":"999","SEMIMAJOR_AXIS":"6925.329","REV_AT_EPOCH":"6463","RA_OF_ASC_NODE":"303.3670","BSTAR":"0.00007912000000","DECAY_DATE":null,"PERIOD":"95.592","REF_FRAME":"TEME","RCS_SIZE":"LARGE","NORAD_CAT_ID":"46336","CENTER_NAME":"EARTH","TIME_SYSTEM":"UTC","MEAN_MOTION_DDOT":"0.0000000000000","FILE":"3191844","MEAN_ELEMENT_THEORY":"SGP4","ECCENTRICITY":"0.00015970","OBJECT_NAME":"STARLINK-1738","APOAPSIS":"548.300","INCLINATION":"53.0551","MEAN_ANOMALY":"289.1378","LAUNCH_DATE":"2020-09-03","OBJECT_ID":"2020-062M","OBJECT_TYPE":"PAYLOAD","PERIAPSIS":"546.088","GP_ID":"188467185","MEAN_MOTION":"15.06406405"},{"SITE":"AFETR","EPHEMERIS_TYPE":"0","TLE_LINE2":"2 46337  53.0539 303.2920 0001422  67.1305 292.9834 15.06396952 64643","ARG_OF_PERICENTER":"67.1305","MEAN_MOTION_DOT":"0.00001362","COUNTRY_CODE":"US","TLE_LINE1":"1 46337U 20062N   21302.70998591  .00001362  00000-0  11033-3 0  9992","REV_AT_EPOCH":"6464","SEMIMAJOR_AXIS":"6925.358","ELEMENT_SET_NO":"999","CLASSIFICATION_TYPE":"U","EPOCH":"2021-10-29T17:02:22.782624","RA_OF_ASC_NODE":"303.2920","BSTAR":"0.00011033000000","PERIOD":"95.592","DECAY_DATE":null,"REF_FRAME":"TEME","CENTER_NAME":"EARTH","NORAD_CAT_ID":"46337","RCS_SIZE":"LARGE","MEAN_MOTION_DDOT":"0.0000000000000","TIME_SYSTEM":"UTC","MEAN_ELEMENT_THEORY":"SGP4","FILE":"3191844","OBJECT_NAME":"STARLINK-1750","ECCENTRICITY":"0.00014220","INCLINATION":"53.0539","APOAPSIS":"548.208","MEAN_ANOMALY":"292.9834","LAUNCH_DATE":"2020-09-03","OBJECT_ID":"2020-062N","MEAN_MOTION":"15.06396952","PERIAPSIS":"546.238","GP_ID":"188467931","OBJECT_TYPE":"PAYLOAD"},{"REF_FRAME":"TEME","CENTER_NAME":"EARTH","NORAD_CAT_ID":"46338","RCS_SIZE":"LARGE","BSTAR":"0.00013735000000","PERIOD":"95.592","DECAY_DATE":null,"SEMIMAJOR_AXIS":"6925.331","REV_AT_EPOCH":"6451","ELEMENT_SET_NO":"999","CLASSIFICATION_TYPE":"U","EPOCH":"2021-10-29T13:27:24.361632","RA_OF_ASC_NODE":"323.9553","SITE":"AFETR","EPHEMERIS_TYPE":"0","TLE_LINE2":"2 46338  53.0545 323.9553 0001117  78.4415 281.6700 15.06405595 64517","ARG_OF_PERICENTER":"78.4415","MEAN_MOTION_DOT":"0.00001765","COUNTRY_CODE":"US","TLE_LINE1":"1 46338U 20062P   21302.56069863  .00001765  00000-0  13735-3 0  9996","MEAN_ANOMALY":"281.6700","LAUNCH_DATE":"2020-09-03","OBJECT_ID":"2020-062P","MEAN_MOTION":"15.06405595","GP_ID":"188439306","PERIAPSIS":"546.423","OBJECT_TYPE":"PAYLOAD","ECCENTRICITY":"0.00011170","OBJECT_NAME":"STARLINK-1752","INCLINATION":"53.0545","APOAPSIS":"547.970","MEAN_MOTION_DDOT":"0.0000000000000","TIME_SYSTEM":"UTC","MEAN_ELEMENT_THEORY":"SGP4","FILE":"3191514"}];
